UNKNOWN                 
1 84188U          26057.37335167  .00178578  00000+0  90789-1 0  9993
2 84188  64.8748 189.1157 3526766   9.9297 355.5815  8.01553716 47190
UNKNOWN                 
1 84232U          26056.79530371  .00031907  00000+0  23644-1 0  9992
2 84232  20.3256 230.7362 6539031 142.8070 288.4704  3.20728031107086
UNKNOWN                 
1 84236U          26053.87896681  .00000675  00000+0  45444-2 0  9992
2 84236   9.3286 303.0215 6890481 157.9709 258.5396  2.62640383115875
UNKNOWN                 
1 84292U          26057.06293881  .00003594  00000+0  22033-2 0  9994
2 84292  23.8323  55.9630 4555052  61.5273 336.8255  6.22165122232754
UNKNOWN                 
1 84407U          26048.50252432  .00000280  00000+0  16148-1 0  9996
2 84407  19.4533 302.8703 7206281  97.6016 341.8062  2.05786974 77240
UNKNOWN                 
1 84575U          26053.69687266 -.00000178  00000+0 -66146-2 0  9997
2 84575  18.0140 134.5257 7113236  66.3817 350.2439  2.19869117 67043
UNKNOWN                 
1 84932U          26057.55376888  .00000786  00000+0  69547-2 0  9999
2 84932   2.0434 198.2168 6576890 142.2591 132.0389  3.00118231134059
UNKNOWN                 
1 85004U          26057.39504876  .00001162  00000+0  36837-3 0  9998
2 85004  98.4322  32.3616 0045767 296.0315 217.9167 14.41319860641790
UNKNOWN                 
1 85010U          26050.09649814  .00000976  00000+0  10602-2 0  9990
2 85010  99.2492 274.9210 0026243  71.9622  79.9762 13.75223327613319
UNKNOWN                 
1 85015U          26043.34303103  .00000513  00000+0  10722-3 0  9994
2 85015  74.0504 280.3183 0014966 175.2991 184.8320 14.62384300651612
UNKNOWN                 
1 85023U          26057.57328255  .00029661  00000+0  39657-2 0  9990
2 85023  99.8438  94.6221 0003027 118.4165  34.0966 14.79437228640020
UNKNOWN                 
1 85027U          26057.11961377  .00000131  00000+0  19968-3 0  9997
2 85027  66.0400 276.9177 0170979 150.1799 210.9144 13.74278823614977
UNKNOWN                 
1 85047U          26057.41500020  .00010745  00000+0  17311-1 0  9996
2 85047 102.1679  43.7199 0109263 215.3592 144.0250 13.46399557586831
UNKNOWN                 
1 85061U          26057.49607424  .00003577  00000+0  14132-1 0  9999
2 85061 102.3968  53.2403 0271365  41.5605 113.8298 12.77591789565456
UNKNOWN                 
1 85100U          26056.43672749  .00000310  00000+0  10514-3 0  9992
2 85100  74.0435  84.6837 0013850 292.1935 133.8839 14.40783972644108
UNKNOWN                 
1 85106U          26057.26552829  .00000600  00000+0  70206-3 0  9992
2 85106 100.0525 166.8395 0010420 178.8967 211.9837 13.73014065613434
UNKNOWN                 
1 85151U          26053.88717051  .00026671  00000+0  33260-2 0  9990
2 85151  98.4005 286.2981 0007818 282.8932  77.1406 14.82363651490201
UNKNOWN                 
1 85210U          26056.63273443  .00000203  00000+0  23255-3 0  9991
2 85210  99.8603 204.6839 0217584 123.0867 302.0698 13.71661560612428
UNKNOWN                 
1 85217U          26057.04266356  .00002087  00000+0  55743-3 0  9998
2 85217  98.0236 151.5198 0205985 260.5240  97.2614 14.37569429638670
UNKNOWN                 
1 85237U          26054.35491965  .00013478  00000+0  26977-2 0  9999
2 85237  65.5338  24.2147 0516167 354.4749   5.0755 14.01835433618525
UNKNOWN                 
1 85238U          26057.59754882  .00000037  00000+0  66009-4 0  9998
2 85238  99.0675 349.6321 0063440 356.5025 179.1574 13.88358512621361
UNKNOWN                 
1 85246U          26056.93251965  .00001357  00000+0  49205-3 0  9992
2 85246  97.9901  58.3882 0223976  82.2001 280.4542 14.21733756633756
UNKNOWN                 
1 85373U          26057.36975788  .00002090  00000+0  14327-2 0  9998
2 85373 100.4247 108.9334 0050489  40.6958  24.1000 14.00372056622715
UNKNOWN                 
1 85425U          26033.71181694  .00000000  00000+0  00000+0 0  9993
2 85425  51.2937 156.4139 6775828 239.1756 342.8295  3.07857636    06
UNKNOWN                 
1 87014U          26056.88123245  .00002428  00000+0  37233-2 0  9997
2 87014 100.4829  30.3380 0052349  53.2293 335.9472 13.52272530601077
UNKNOWN                 
1 87029U          26056.04083260  .00000958  00000+0  60630-3 0  9997
2 87029  98.7453  93.6492 0081636  42.6311 318.1154 14.04679370603438
UNKNOWN                 
1 87042U          26056.83502806  .00000861  00000+0  53452-3 0  9998
2 87042  98.7045 102.3205 0042677 241.9066 117.7786 14.07254790564521
UNKNOWN                 
1 87051U          26056.49779103  .00001052  00000+0  39493-3 0  9998
2 87051  65.7274  76.0783 0709017 107.0930 260.8985 13.46218290598645
UNKNOWN                 
1 87054U          26057.51698649  .00001703  00000+0  96944-3 0  9997
2 87054 100.0907 311.2479 0012795 133.4268 226.7966 14.11423988627016
UNKNOWN                 
1 87071U          26055.96668280  .00004596  00000+0  16692-2 0  9995
2 87071  61.2216  51.0922 0473011 274.9403  79.7800 13.86496367612774
UNKNOWN                 
1 87129U          26057.51213155  .00000165  00000+0  15216-2 0  9998
2 87129 102.2552 154.3754 0029827 295.7994  63.9994 12.42851973556084
UNKNOWN                 
1 87159U          26054.79364955  .00001287  00000+0  14892-2 0  9998
2 87159  90.3448  72.0326 0105740  41.6620 319.2534 13.66276360566662
UNKNOWN                 
1 87163U          26055.97834864  .00003809  00000+0  11361-2 0  9995
2 87163  65.6000  53.1330 0645436  31.3592 332.4320 13.64311569587646
UNKNOWN                 
1 87164U          26056.76227244  .00003304  00000+0  67198-3 0  9992
2 87164  65.2025 109.6812 0104827  19.4202 341.0845 14.59176903646719
UNKNOWN                 
1 87204U          26057.58292786  .00001944  00000+0  76479-3 0  9991
2 87204  98.5339 281.8866 0046188 100.4307 260.2085 14.29750489636277
UNKNOWN                 
1 87211U          26055.81893811  .00003419  00000+0  93562-3 0  9990
2 87211  99.0886  65.9782 0051590 299.6495 186.2543 14.47142657718480
UNKNOWN                 
1 87214U          26055.48052158  .00001322  00000+0  12085-2 0  9998
2 87214 100.3348  66.3925 0069488  65.2749 295.5614 13.84230257610444
UNKNOWN                 
1 87237U          26055.14380186  .00000250  00000+0  22109-3 0  9999
2 87237  99.2446 115.4359 0103810  86.1823 302.3817 13.91830297621974
UNKNOWN                 
1 87239U          26056.88523810  .00008458  00000+0  20115-2 0  9998
2 87239  82.8760  18.9583 0018858 150.7155 209.5106 14.53662801638781
UNKNOWN                 
1 87245U          26057.41676718  .00004380  00000+0  91669-3 0  9994
2 87245  65.6410 205.2954 0425593  83.2232 313.6254 14.16626821624929
UNKNOWN                 
1 87271U          26055.95615364  .00010411  00000+0  18699-2 0  9993
2 87271  65.7558  36.6498 0420380  34.2206 328.5218 14.22667072622920
UNKNOWN                 
1 87280U          26057.38817755  .00000336  00000+0  63917-3 0  9999
2 87280  64.6140  48.2592 0128939 246.3908 112.3548 13.48635224544052
UNKNOWN                 
1 87293U          26057.09856391  .00005297  00000+0  10140-2 0  9990
2 87293  65.8977 304.7458 0427548 319.0289  37.9383 14.19525532624682
UNKNOWN                 
1 87300U          26057.42621699  .00001570  00000+0  11040-2 0  9997
2 87300 100.0990  52.5396 0026833  90.3387 270.0848 13.99756894623709
UNKNOWN                 
1 87304U          26055.06946452  .00002205  00000+0  32596-3 0  9992
2 87304  74.0188 177.3609 0016746 130.9964 229.2662 14.75775931657298
UNKNOWN                 
1 87320U          26057.57226968  .00001221  00000+0  78158-3 0  9992
2 87320  66.5910 263.3413 0420694   6.1470 354.4530 13.70437159604132
UNKNOWN                 
1 87334U          26057.08481264  .00014918  00000+0  82681-2 0  9997
2 87334  90.0077 271.6959 0067822   0.0760   0.0423 14.09978940397253
UNKNOWN                 
1 87335U          26054.03084315  .00019471  00000+0  10633-1 0  9992
2 87335  89.9958 267.8912 0086539 350.0810   9.8663 14.10028091397152
UNKNOWN                 
1 87405U          26057.58735186  .00002512  00000+0  17727-2 0  9992
2 87405  82.7528   0.2630 0059504 109.6795 251.0807 13.96729477621747
UNKNOWN                 
1 87426U          26055.63928710  .00004468  00000+0  16996-2 0  9995
2 87426  65.7821 134.0508 0070183 260.5614 249.1285 14.30520390633158
UNKNOWN                 
1 87448U          26057.05028969  .00001282  00000+0  10506-2 0  9996
2 87448 100.4518 277.8792 0063978   8.7446 351.4808 13.90848543619703
UNKNOWN                 
1 87456U          26053.00608493  .00003756  00000+0  55206-3 0  9997
2 87456  65.7710 261.5960 0509514 328.3661  28.7697 14.15044008621577
UNKNOWN                 
1 87517U          26056.51742285  .00004321  00000+0  11831-2 0  9996
2 87517  65.8215  50.5207 0674897 270.8281 172.7502 13.61985477603098
UNKNOWN                 
1 87541U          26052.81579115  .00000029  00000+0  13688-3 0  9996
2 87541  99.6987 268.1559 0060182  90.2236 330.0173 13.35608982591524
UNKNOWN                 
1 87553U          26056.81198270  .00004373  00000+0  13549-2 0  9993
2 87553  65.6690 174.1249 0692803 194.2051 163.8614 13.54020158601410
UNKNOWN                 
1 87557U          26055.87915805  .00003268  00000+0  72025-2 0  9999
2 87557 101.7630 286.1314 0061578 227.4033 132.1877 13.28455630574872
UNKNOWN                 
1 87561U          26054.64447422 -.00000036  00000+0  53876-4 0  9999
2 87561 101.9977 115.1379 0175967 159.8358 354.3690 12.32165753551415
UNKNOWN                 
1 87565U          26057.44735150  .00001389  00000+0  76745-3 0  9992
2 87565  99.9531  61.4866 0171267 326.1753  32.8579 14.06229683627078
UNKNOWN                 
1 87569U          26057.35685481 -.00000024  00000+0  12147-3 0  9999
2 87569 101.9942 242.6291 0055789 105.1401  14.5359 12.68543772568051
